ONEWEB-0300             
1 49089U 21075Q   24284.55615463 -.00000254  00000+0 -74044-3 0  9994
2 49089  87.8839 113.0736 0001661 100.0377 260.0939 13.12441218154587
ONEWEB-0301             
1 49090U 21075R   24284.53994324  .00000015  00000+0  68936-5 0  9998
2 49090  87.8840 113.0808 0001675  96.2588 263.8731 13.12440713153945
ONEWEB-0302             
1 49091U 21075S   24284.52696360  .00000087  00000+0  20626-3 0  9998
2 49091  87.8836 113.0833 0001504  86.7360 273.3941 13.12442229153923
ONEWEB-0304             
1 49092U 21075T   24284.54097146  .00001569  00000+0  40064-2 0  9991
2 49092  87.9083 128.3104 0001667  77.1595 282.9723 13.17665307152633
ONEWEB-0305             
1 49093U 21075U   24284.83798452  .00000050  00000+0  95554-4 0  9992
2 49093  87.9085 128.2345 0001323  73.4948 286.6329 13.17652252153675
ONEWEB-0308             
1 49094U 21075V   24284.52047840  .00000476  00000+0  12879-2 0  9996
2 49094  87.8839 113.0824 0001639  88.0358 272.0958 13.12445504153934
ONEWEB-0309             
1 49095U 21075W   24284.53761926  .00000038  00000+0  64179-4 0  9992
2 49095  87.9089 128.3024 0002050  71.1846 288.9507 13.17648412152637
ONEWEB-0310             
1 49096U 21075X   24284.53508132  .00000240  00000+0  63156-3 0  9999
2 49096  87.8848 113.0976 0001761  82.6389 277.4939 13.12443337154564
